NORAD_CAT_ID,OBJECT_NAME,OBJECT_TYPE,EPOCH,MEAN_MOTION,ECCENTRICITY,INCLINATION,RA_OF_ASC_NODE,ARG_OF_PERICENTER,MEAN_ANOMALY,BSTAR,MEAN_MOTION_DOT,MEAN_MOTION_DDOT,TLE_LINE0,TLE_LINE1,TLE_LINE2,SEMIMAJOR_AXIS,PERIOD,APOGEE,PERIGEE,DECAYED
52293.0,STARLINK-3771,PAYLOAD,2023-10-04 20:57:34,15.08855241,0.0001257,53.2151,120.2017,95.5396,264.574,0.00034444,5.2e-05,0.0,0 STARLINK-3771,1 52293U 22041AJ  23277.87331834  .00005200  00000-0  34444-3 0  9997,2 52293  53.2151 120.2017 0001257  95.5396 264.5740 15.08855241 80628,6917.834,95.437,540.568,538.829,0.0
52293.0,STARLINK-3771,PAYLOAD,2023-10-04 22:32:57,15.0885753,0.0001239,53.2149,119.904,91.9564,268.157,0.00039502,6.007e-05,0.0,0 STARLINK-3771,1 52293U 22041AJ  23277.93955745  .00006007  00000-0  39502-3 0  9993,2 52293  53.2149 119.9040 0001239  91.9564 268.1570 15.08857530 81853,6917.827,95.436,540.549,538.835,0.0
52293.0,STARLINK-3771,PAYLOAD,2023-10-05 06:29:53,15.08842744,0.0001416,53.2146,118.4157,86.9191,273.1963,0.00012641,1.725e-05,0.0,0 STARLINK-3771,1 52293U 22041AJ  23278.27076318  .00001725  00000-0  12641-3 0  9998,2 52293  53.2146 118.4157 0001416  86.9191 273.1963 15.08842744 81909,6917.872,95.437,540.717,538.757,0.0
52293.0,STARLINK-3771,PAYLOAD,2023-10-05 20:48:22,15.08836909,0.000151,53.2145,115.7405,81.4287,278.6877,-1.9005e-06,-3.18e-06,0.0,0 STARLINK-3771,1 52293U 22041AJ  23278.86692705 -.00000318  00000-0 -19005-5 0  9999,2 52293  53.2145 115.7405 0001510  81.4287 278.6877 15.08836909 81994,6917.89,95.438,540.799,538.71,0.0
52293.0,STARLINK-3771,PAYLOAD,2023-10-05 22:23:45,15.08838616,0.0001564,53.2143,115.4431,81.5994,278.5175,3.7436e-05,3.08e-06,0.0,0 STARLINK-3771,1 52293U 22041AJ  23278.93316676  .00000308  00000-0  37436-4 0  9991,2 52293  53.2143 115.4431 0001564  81.5994 278.5175 15.08838616 80786,6917.885,95.438,540.832,538.668,0.0
52293.0,STARLINK-3771,PAYLOAD,2023-10-06 20:39:09,15.088431,0.0001394,53.2152,111.2792,89.8155,270.2997,0.0001418,1.97e-05,0.0,0 STARLINK-3771,1 52293U 22041AJ  23279.86052677  .00001970  00000-0  14180-3 0  9998,2 52293  53.2152 111.2792 0001394  89.8155 270.2997 15.08843100 80922,6917.871,95.437,540.7,538.772,0.0
52293.0,STARLINK-3771,PAYLOAD,2023-10-07 06:11:28,15.08838723,0.0001357,53.2159,109.4947,80.7144,279.4002,0.00011492,1.541e-05,0.0,0 STARLINK-3771,1 52293U 22041AJ  23280.25796988  .00001541  00000-0  11492-3 0  9990,2 52293  53.2159 109.4947 0001357  80.7144 279.4002 15.08838723 82203,6917.884,95.438,540.688,538.811,0.0
52293.0,STARLINK-3771,PAYLOAD,2023-10-07 12:33:01,15.08836226,0.000141,53.2151,108.3046,86.3726,273.7427,0.00018802,2.705e-05,0.0,0 STARLINK-3771,1 52293U 22041AJ  23280.52293296  .00002705  00000-0  18802-3 0  9999,2 52293  53.2151 108.3046 0001410  86.3726 273.7427 15.08836226 81024,6917.892,95.438,540.732,538.782,0.0
52293.0,STARLINK-3771,PAYLOAD,2023-10-07 22:05:19,15.08844203,0.0001416,53.2153,106.5203,83.9424,276.173,0.00021619,3.155e-05,0.0,0 STARLINK-3771,1 52293U 22041AJ  23280.92036997  .00003155  00000-0  21619-3 0  9996,2 52293  53.2153 106.5203 0001416  83.9424 276.1730 15.08844203 81089,6917.868,95.437,540.712,538.753,0.0
52293.0,STARLINK-3771,PAYLOAD,2023-10-08 12:23:48,15.08844972,0.0001434,53.2155,103.844,88.8086,271.307,0.0001233,1.675e-05,0.0,0 STARLINK-3771,1 52293U 22041AJ  23281.51653014  .00001675  00000-0  12330-3 0  9992,2 52293  53.2155 103.8440 0001434  88.8086 271.3070 15.08844972 81179,6917.865,95.437,540.722,538.738,0.0
52293.0,STARLINK-3771,PAYLOAD,2023-10-08 18:45:20,15.08851165,0.0001434,53.2154,102.6546,88.82,271.2956,0.00021537,3.142e-05,0.0,0 STARLINK-3771,1 52293U 22041AJ  23281.78148651  .00003142  00000-0  21537-3 0  9997,2 52293  53.2154 102.6546 0001434  88.8200 271.2956 15.08851165 82434,6917.846,95.437,540.703,538.719,0.0
52293.0,STARLINK-3771,PAYLOAD,2023-10-09 12:14:35,15.08841892,0.0001429,53.2147,99.3844,85.1697,274.9458,0.00012198,1.654e-05,0.0,0 STARLINK-3771,1 52293U 22041AJ  23282.51013023  .00001654  00000-0  12198-3 0  9992,2 52293  53.2147  99.3844 0001429  85.1697 274.9458 15.08841892 81323,6917.875,95.437,540.728,538.751,0.0
52293.0,STARLINK-3771,PAYLOAD,2023-10-09 18:36:07,15.08845439,0.0001299,53.215,98.1938,87.8473,272.2668,0.00013787,1.907e-05,0.0,0 STARLINK-3771,1 52293U 22041AJ  23282.77508779  .00001907  00000-0  13787-3 0  9993,2 52293  53.2150  98.1938 0001299  87.8473 272.2668 15.08845439 82588,6917.864,95.437,540.627,538.83,0.0
52293.0,STARLINK-3771,PAYLOAD,2023-10-09 21:46:53,15.08847728,0.0001333,53.2155,97.5994,88.8563,271.2582,0.00014491,2.02e-05,0.0,0 STARLINK-3771,1 52293U 22041AJ  23282.90756636  .00002020  00000-0  14491-3 0  9995,2 52293  53.2155  97.5994 0001333  88.8563 271.2582 15.08847728 81382,6917.857,95.437,540.644,538.8,0.0
52293.0,STARLINK-3771,PAYLOAD,2023-10-10 12:05:22,15.08843031,0.0001357,53.2158,94.9238,90.2696,269.8452,5.2629e-05,5.5e-06,0.0,0 STARLINK-3771,1 52293U 22041AJ  23283.50372785  .00000550  00000-0  52629-4 0  9993,2 52293  53.2158  94.9238 0001357  90.2696 269.8452 15.08843031 81479,6917.871,95.437,540.675,538.797,0.0
52293.0,STARLINK-3771,PAYLOAD,2023-10-10 21:37:40,15.08853413,0.0001417,53.2155,93.1399,92.4336,267.6819,0.00018876,2.719e-05,0.0,0 STARLINK-3771,1 52293U 22041AJ  23283.90116077  .00002719  00000-0  18876-3 0  9991,2 52293  53.2155  93.1399 0001417  92.4336 267.6819 15.08853413 81532,6917.839,95.437,540.685,538.724,0.0
52293.0,STARLINK-3771,PAYLOAD,2023-10-10 23:13:03,15.08856955,0.0001396,53.2159,92.8421,91.8591,268.2561,0.00023082,3.389e-05,0.0,0 STARLINK-3771,1 52293U 22041AJ  23283.96739837  .00003389  00000-0  23082-3 0  9991,2 52293  53.2159  92.8421 0001396  91.8591 268.2561 15.08856955 82761,6917.829,95.436,540.659,538.728,0.0
52293.0,STARLINK-3771,PAYLOAD,2023-10-11 10:20:46,15.08835568,0.0001683,53.2161,90.7612,82.1662,277.9521,-6.1534e-06,-3.86e-06,0.0,0 STARLINK-3771,1 52293U 22041AJ  23284.43109090 -.00000386  00000-0 -61534-5 0  9998,2 52293  53.2161  90.7612 0001683  82.1662 277.9521 15.08835568 82832,6917.894,95.438,540.923,538.595,0.0
52293.0,STARLINK-3771,PAYLOAD,2023-10-11 11:56:09,15.088349,0.0001691,53.2161,90.4636,82.0396,278.0788,-2.2578e-05,-6.47e-06,0.0,0 STARLINK-3771,1 52293U 22041AJ  23284.49733130 -.00000647  00000-0 -22578-4 0  9996,2 52293  53.2161  90.4636 0001691  82.0396 278.0788 15.08834900 81629,6917.896,95.438,540.931,538.591,0.0
52293.0,STARLINK-3771,PAYLOAD,2023-10-12 14:57:42,15.08845847,0.0001455,53.2164,85.4085,85.5314,274.5845,0.00020742,3.015e-05,0.0,0 STARLINK-3771,1 52293U 22041AJ  23285.62340869  .00003015  00000-0  20742-3 0  9995,2 52293  53.2164  85.4085 0001455  85.5314 274.5845 15.08845847 81795,6917.863,95.437,540.734,538.721,0.0
52293.0,STARLINK-3771,PAYLOAD,2023-10-12 18:08:28,15.08848905,0.0001484,53.2164,84.814,83.2828,276.8333,0.00038952,5.918e-05,0.0,0 STARLINK-3771,1 52293U 22041AJ  23285.75588856  .00005918  00000-0  38952-3 0  9995,2 52293  53.2164  84.8140 0001484  83.2828 276.8333 15.08848905 83031,6917.853,95.437,540.745,538.692,0.0
52293.0,STARLINK-3771,PAYLOAD,2023-10-13 03:40:47,15.08841221,0.0001457,53.2161,83.0285,90.2019,269.914,0.0001874,2.696e-05,0.0,0 STARLINK-3771,1 52293U 22041AJ  23286.15333016  .00002696  00000-0  18740-3 0  9999,2 52293  53.2161  83.0285 0001457  90.2019 269.9140 15.08841221 83098,6917.877,95.437,540.75,538.734,0.0
52293.0,STARLINK-3771,PAYLOAD,2023-10-13 14:48:30,15.08835234,0.0001419,53.2156,80.9479,87.619,272.4964,9.5116e-05,1.226e-05,0.0,0 STARLINK-3771,1 52293U 22041AJ  23286.61701436  .00001226  00000-0  95116-4 0  9996,2 52293  53.2156  80.9479 0001419  87.6190 272.4964 15.08835234 81943,6917.895,95.438,540.742,538.778,0.0
52293.0,STARLINK-3771,PAYLOAD,2023-10-13 17:59:16,15.08843174,0.0001408,53.2163,80.3526,86.906,273.2093,0.0002002,2.9e-05,0.0,0 STARLINK-3771,1 52293U 22041AJ  23286.74949175  .00002900  00000-0  20020-3 0  9995,2 52293  53.2163  80.3526 0001408  86.9060 273.2093 15.08843174 81960,6917.871,95.437,540.71,538.762,0.0
52293.0,STARLINK-3771,PAYLOAD,2023-10-14 09:53:07,15.08845254,0.0001343,53.2158,77.379,89.0179,271.0967,0.00020236,2.935e-05,0.0,0 STARLINK-3771,1 52293U 22041AJ  23287.41189022  .00002935  00000-0  20236-3 0  9994,2 52293  53.2158  77.3790 0001343  89.0179 271.0967 15.08845254 83280,6917.864,95.437,540.658,538.8,0.0
52293.0,STARLINK-3771,PAYLOAD,2023-10-14 13:03:53,15.08846714,0.0001344,53.2157,76.7842,90.0246,270.09,0.00022576,3.308e-05,0.0,0 STARLINK-3771,1 52293U 22041AJ  23287.54436952  .00003308  00000-0  22576-3 0  9999,2 52293  53.2157  76.7842 0001344  90.0246 270.0900 15.08846714 82083,6917.86,95.437,540.655,538.795,0.0
52293.0,STARLINK-3771,PAYLOAD,2023-10-14 17:50:02,15.08855222,0.0001421,53.2159,75.8917,84.9009,275.2145,0.00044944,6.875e-05,0.0,0 STARLINK-3771,1 52293U 22041AJ  23287.74308715  .00006875  00000-0  44944-3 0  9991,2 52293  53.2159  75.8917 0001421  84.9009 275.2145 15.08855222 82119,6917.834,95.437,540.682,538.716,0.0
52293.0,STARLINK-3771,PAYLOAD,2023-10-15 09:43:54,15.08839813,0.0001613,53.2171,72.9203,81.6277,278.4898,0.00012253,1.663e-05,0.0,0 STARLINK-3771,1 52293U 22041AJ  23288.40549411  .00001663  00000-0  12253-3 0  9993,2 52293  53.2171  72.9203 0001613  81.6277 278.4898 15.08839813 83437,6917.881,95.438,540.862,538.63,0.0
52293.0,STARLINK-3771,PAYLOAD,2023-10-15 14:30:04,15.08838407,0.0001469,53.2162,72.0262,86.6838,273.4322,0.00010124,1.324e-05,0.0,0 STARLINK-3771,1 52293U 22041AJ  23288.60421421  .00001324  00000-0  10124-3 0  9994,2 52293  53.2162  72.0262 0001469  86.6838 273.4322 15.08838407 82243,6917.885,95.438,540.766,538.734,0.0
52293.0,STARLINK-3771,PAYLOAD,2023-10-15 16:05:27,15.08838395,0.0001409,53.2163,71.7284,95.6888,264.4265,7.8463e-05,9.61e-06,0.0,0 STARLINK-3771,1 52293U 22041AJ  23288.67045370  .00000961  00000-0  78463-4 0  9993,2 52293  53.2163  71.7284 0001409  95.6888 264.4265 15.08838395 82256,6917.885,95.438,540.725,538.776,0.0
